STARLINK-37110          
1 68222U 26053R   26084.83335647 -.02219370  13056-2 -73969-2 0  9994
2 68222  97.2773 319.8538 0001634  83.9188  62.3814 15.90391216  2604
STARLINK-37025          
1 68223U 26053S   26084.83335647 -.02212209  12994-2 -73215-2 0  9993
2 68223  97.2769 319.8544 0001675  91.7515  57.6910 15.90529434  2602
STARLINK-36977          
1 68224U 26053T   26084.83335647 -.02208596  12975-2 -72505-2 0  9998
2 68224  97.2764 319.8554 0001661  90.6040  61.6856 15.90689630  2491
STARLINK-36960          
1 68225U 26053U   26084.83335647 -.02193373  12826-2 -71439-2 0  9995
2 68225  97.2765 319.8567 0001704  89.4534  65.6369 15.90843884  2585
STARLINK-37038          
1 68226U 26053V   26084.83335647 -.02206869  13017-2 -70819-2 0  9995
2 68226  97.2765 319.8595 0001596  90.1926  70.9576 15.91138204  2583
STARLINK-37083          
1 68227U 26053W   26084.83335647 -.02206617  12995-2 -71319-2 0  9997
2 68227  97.2768 319.8585 0001668  93.2602  64.8023 15.90997221  2604
STARLINK-37050          
1 68228U 26053X   26084.83335647 -.02200432  12962-2 -70148-2 0  9990
2 68228  97.2768 319.8616 0001700  89.3261  74.9966 15.91266956  2584
STARLINK-37081          
1 68229U 26053Y   26084.83335647 -.02200197  13018-2 -68628-2 0  9992
2 68229  97.2760 319.8650 0001717  95.5311  77.7218 15.91694059  2601
STARLINK-37100          
1 68230U 26053Z   26084.83335647 -.02192220  12890-2 -69358-2 0  9999
2 68230  97.2763 319.8624 0001611  87.5645  79.5712 15.91415471  2609
STARLINK-37104          
1 68231U 26053AA  26084.83335647 -.02215711  13175-2 -69577-2 0  9991
2 68231  97.2761 319.8639 0001757  95.9635  74.2542 15.91564261  2602
STARLINK-37027          
1 68232U 26054A   26084.83335647 -.00116046  00000+0 -59027-3 0  9992
2 68232  53.1598 231.7707 0000714  64.2879  51.0795 15.80948499  2500
STARLINK-37132          
1 68233U 26054B   26084.83335647 -.00557492  00000+0 -29566-2 0  9991
2 68233  53.1598 231.7621 0000760  79.5562  39.9350 15.81240269  2586
