CCSDS_OMM_VERS = 2.0
CREATION_DATE  = 
ORIGINATOR     = 

OBJECT_NAME    = STARLINK-37110
OBJECT_ID      = 2026-053R
CENTER_NAME    = EARTH
REF_FRAME      = TEME
TIME_SYSTEM    = UTC
MEAN_ELEMENT_THEORY = SGP/SGP4

EPOCH          = 2026-03-25T20:00:01.999008
MEAN_MOTION    = 15.90391216
ECCENTRICITY   = .0001634
INCLINATION    = 97.2773
RA_OF_ASC_NODE = 319.8538
ARG_OF_PERICENTER = 83.9188
MEAN_ANOMALY   = 62.3814

EPHEMERIS_TYPE = 0
CLASSIFICATION_TYPE = U
NORAD_CAT_ID   = 68222
ELEMENT_SET_NO = 999
REV_AT_EPOCH   = 260
BSTAR          = -.73969E-2
MEAN_MOTION_DOT = -.221937E-1
MEAN_MOTION_DDOT = .13056E-2

CCSDS_OMM_VERS = 2.0
CREATION_DATE  = 
ORIGINATOR     = 

OBJECT_NAME    = STARLINK-37025
OBJECT_ID      = 2026-053S
CENTER_NAME    = EARTH
REF_FRAME      = TEME
TIME_SYSTEM    = UTC
MEAN_ELEMENT_THEORY = SGP/SGP4

EPOCH          = 2026-03-25T20:00:01.999008
MEAN_MOTION    = 15.90529434
ECCENTRICITY   = .0001675
INCLINATION    = 97.2769
RA_OF_ASC_NODE = 319.8544
ARG_OF_PERICENTER = 91.7515
MEAN_ANOMALY   = 57.6910

EPHEMERIS_TYPE = 0
CLASSIFICATION_TYPE = U
NORAD_CAT_ID   = 68223
ELEMENT_SET_NO = 999
REV_AT_EPOCH   = 260
BSTAR          = -.73215E-2
MEAN_MOTION_DOT = -.2212209E-1
MEAN_MOTION_DDOT = .12994E-2

CCSDS_OMM_VERS = 2.0
CREATION_DATE  = 
ORIGINATOR     = 

OBJECT_NAME    = STARLINK-36977
OBJECT_ID      = 2026-053T
CENTER_NAME    = EARTH
REF_FRAME      = TEME
TIME_SYSTEM    = UTC
MEAN_ELEMENT_THEORY = SGP/SGP4

EPOCH          = 2026-03-25T20:00:01.999008
MEAN_MOTION    = 15.90689630
ECCENTRICITY   = .0001661
INCLINATION    = 97.2764
RA_OF_ASC_NODE = 319.8554
ARG_OF_PERICENTER = 90.6040
MEAN_ANOMALY   = 61.6856

EPHEMERIS_TYPE = 0
CLASSIFICATION_TYPE = U
NORAD_CAT_ID   = 68224
ELEMENT_SET_NO = 999
REV_AT_EPOCH   = 249
BSTAR          = -.72505E-2
MEAN_MOTION_DOT = -.2208596E-1
MEAN_MOTION_DDOT = .12975E-2

CCSDS_OMM_VERS = 2.0
CREATION_DATE  = 
ORIGINATOR     = 

OBJECT_NAME    = STARLINK-36960
OBJECT_ID      = 2026-053U
CENTER_NAME    = EARTH
REF_FRAME      = TEME
TIME_SYSTEM    = UTC
MEAN_ELEMENT_THEORY = SGP/SGP4

EPOCH          = 2026-03-25T20:00:01.999008
MEAN_MOTION    = 15.90843884
ECCENTRICITY   = .0001704
INCLINATION    = 97.2765
RA_OF_ASC_NODE = 319.8567
ARG_OF_PERICENTER = 89.4534
MEAN_ANOMALY   = 65.6369

EPHEMERIS_TYPE = 0
CLASSIFICATION_TYPE = U
NORAD_CAT_ID   = 68225
ELEMENT_SET_NO = 999
REV_AT_EPOCH   = 258
BSTAR          = -.71439E-2
MEAN_MOTION_DOT = -.2193373E-1
MEAN_MOTION_DDOT = .12826E-2

CCSDS_OMM_VERS = 2.0
CREATION_DATE  = 
ORIGINATOR     = 

OBJECT_NAME    = STARLINK-37038
OBJECT_ID      = 2026-053V
CENTER_NAME    = EARTH
REF_FRAME      = TEME
TIME_SYSTEM    = UTC
MEAN_ELEMENT_THEORY = SGP/SGP4

EPOCH          = 2026-03-25T20:00:01.999008
MEAN_MOTION    = 15.91138204
ECCENTRICITY   = .0001596
INCLINATION    = 97.2765
RA_OF_ASC_NODE = 319.8595
ARG_OF_PERICENTER = 90.1926
MEAN_ANOMALY   = 70.9576

EPHEMERIS_TYPE = 0
CLASSIFICATION_TYPE = U
NORAD_CAT_ID   = 68226
ELEMENT_SET_NO = 999
REV_AT_EPOCH   = 258
BSTAR          = -.70819E-2
MEAN_MOTION_DOT = -.2206869E-1
MEAN_MOTION_DDOT = .13017E-2

CCSDS_OMM_VERS = 2.0
CREATION_DATE  = 
ORIGINATOR     = 

OBJECT_NAME    = STARLINK-37083
OBJECT_ID      = 2026-053W
CENTER_NAME    = EARTH
REF_FRAME      = TEME
TIME_SYSTEM    = UTC
MEAN_ELEMENT_THEORY = SGP/SGP4

EPOCH          = 2026-03-25T20:00:01.999008
MEAN_MOTION    = 15.90997221
ECCENTRICITY   = .0001668
INCLINATION    = 97.2768
RA_OF_ASC_NODE = 319.8585
ARG_OF_PERICENTER = 93.2602
MEAN_ANOMALY   = 64.8023

EPHEMERIS_TYPE = 0
CLASSIFICATION_TYPE = U
NORAD_CAT_ID   = 68227
ELEMENT_SET_NO = 999
REV_AT_EPOCH   = 260
BSTAR          = -.71319E-2
MEAN_MOTION_DOT = -.2206617E-1
MEAN_MOTION_DDOT = .12995E-2

CCSDS_OMM_VERS = 2.0
CREATION_DATE  = 
ORIGINATOR     = 

OBJECT_NAME    = STARLINK-37050
OBJECT_ID      = 2026-053X
CENTER_NAME    = EARTH
REF_FRAME      = TEME
TIME_SYSTEM    = UTC
MEAN_ELEMENT_THEORY = SGP/SGP4

EPOCH          = 2026-03-25T20:00:01.999008
MEAN_MOTION    = 15.91266956
ECCENTRICITY   = .00017
INCLINATION    = 97.2768
RA_OF_ASC_NODE = 319.8616
ARG_OF_PERICENTER = 89.3261
MEAN_ANOMALY   = 74.9966

EPHEMERIS_TYPE = 0
CLASSIFICATION_TYPE = U
NORAD_CAT_ID   = 68228
ELEMENT_SET_NO = 999
REV_AT_EPOCH   = 258
BSTAR          = -.70148E-2
MEAN_MOTION_DOT = -.2200432E-1
MEAN_MOTION_DDOT = .12962E-2

CCSDS_OMM_VERS = 2.0
CREATION_DATE  = 
ORIGINATOR     = 

OBJECT_NAME    = STARLINK-37081
OBJECT_ID      = 2026-053Y
CENTER_NAME    = EARTH
REF_FRAME      = TEME
TIME_SYSTEM    = UTC
MEAN_ELEMENT_THEORY = SGP/SGP4

EPOCH          = 2026-03-25T20:00:01.999008
MEAN_MOTION    = 15.91694059
ECCENTRICITY   = .0001717
INCLINATION    = 97.2760
RA_OF_ASC_NODE = 319.8650
ARG_OF_PERICENTER = 95.5311
MEAN_ANOMALY   = 77.7218

EPHEMERIS_TYPE = 0
CLASSIFICATION_TYPE = U
NORAD_CAT_ID   = 68229
ELEMENT_SET_NO = 999
REV_AT_EPOCH   = 260
BSTAR          = -.68628E-2
MEAN_MOTION_DOT = -.2200197E-1
MEAN_MOTION_DDOT = .13018E-2

CCSDS_OMM_VERS = 2.0
CREATION_DATE  = 
ORIGINATOR     = 

OBJECT_NAME    = STARLINK-37100
OBJECT_ID      = 2026-053Z
CENTER_NAME    = EARTH
REF_FRAME      = TEME
TIME_SYSTEM    = UTC
MEAN_ELEMENT_THEORY = SGP/SGP4

EPOCH          = 2026-03-25T20:00:01.999008
MEAN_MOTION    = 15.91415471
ECCENTRICITY   = .0001611
INCLINATION    = 97.2763
RA_OF_ASC_NODE = 319.8624
ARG_OF_PERICENTER = 87.5645
MEAN_ANOMALY   = 79.5712

EPHEMERIS_TYPE = 0
CLASSIFICATION_TYPE = U
NORAD_CAT_ID   = 68230
ELEMENT_SET_NO = 999
REV_AT_EPOCH   = 260
BSTAR          = -.69358E-2
MEAN_MOTION_DOT = -.219222E-1
MEAN_MOTION_DDOT = .1289E-2

CCSDS_OMM_VERS = 2.0
CREATION_DATE  = 
ORIGINATOR     = 

OBJECT_NAME    = STARLINK-37104
OBJECT_ID      = 2026-053AA
CENTER_NAME    = EARTH
REF_FRAME      = TEME
TIME_SYSTEM    = UTC
MEAN_ELEMENT_THEORY = SGP/SGP4

EPOCH          = 2026-03-25T20:00:01.999008
MEAN_MOTION    = 15.91564261
ECCENTRICITY   = .0001757
INCLINATION    = 97.2761
RA_OF_ASC_NODE = 319.8639
ARG_OF_PERICENTER = 95.9635
MEAN_ANOMALY   = 74.2542

EPHEMERIS_TYPE = 0
CLASSIFICATION_TYPE = U
NORAD_CAT_ID   = 68231
ELEMENT_SET_NO = 999
REV_AT_EPOCH   = 260
BSTAR          = -.69577E-2
MEAN_MOTION_DOT = -.2215711E-1
MEAN_MOTION_DDOT = .13175E-2

CCSDS_OMM_VERS = 2.0
CREATION_DATE  = 
ORIGINATOR     = 

OBJECT_NAME    = STARLINK-37027
OBJECT_ID      = 2026-054A
CENTER_NAME    = EARTH
REF_FRAME      = TEME
TIME_SYSTEM    = UTC
MEAN_ELEMENT_THEORY = SGP/SGP4

EPOCH          = 2026-03-25T20:00:01.999008
MEAN_MOTION    = 15.80948499
ECCENTRICITY   = .0000714
INCLINATION    = 53.1598
RA_OF_ASC_NODE = 231.7707
ARG_OF_PERICENTER = 64.2879
MEAN_ANOMALY   = 51.0795

EPHEMERIS_TYPE = 0
CLASSIFICATION_TYPE = U
NORAD_CAT_ID   = 68232
ELEMENT_SET_NO = 999
REV_AT_EPOCH   = 250
BSTAR          = -.59027E-3
MEAN_MOTION_DOT = -.116046E-2
MEAN_MOTION_DDOT = 0

CCSDS_OMM_VERS = 2.0
CREATION_DATE  = 
ORIGINATOR     = 

OBJECT_NAME    = STARLINK-37132
OBJECT_ID      = 2026-054B
CENTER_NAME    = EARTH
REF_FRAME      = TEME
TIME_SYSTEM    = UTC
MEAN_ELEMENT_THEORY = SGP/SGP4

EPOCH          = 2026-03-25T20:00:01.999008
MEAN_MOTION    = 15.81240269
ECCENTRICITY   = .000076
INCLINATION    = 53.1598
RA_OF_ASC_NODE = 231.7621
ARG_OF_PERICENTER = 79.5562
MEAN_ANOMALY   = 39.9350

EPHEMERIS_TYPE = 0
CLASSIFICATION_TYPE = U
NORAD_CAT_ID   = 68233
ELEMENT_SET_NO = 999
REV_AT_EPOCH   = 258
BSTAR          = -.29566E-2
MEAN_MOTION_DOT = -.557492E-2
MEAN_MOTION_DDOT = 0

